ONEWEB-0068             
1 45446U 20020Y   26189.97423038  .00000532  00000+0  14660-2 0  9997
2 45446  87.8884  16.7266 0001635  88.7217 271.4098 13.11415724305451
ONEWEB-0046             
1 45447U 20020Z   26189.96588311  .00000563  00000+0  15537-2 0  9991
2 45447  87.8876  16.7326 0001737  80.7484 279.3841 13.11417909305462
ONEWEB-0063             
1 45448U 20020AA  26190.75780779 -.00000055  00000+0 -19128-3 0  9992
2 45448  87.8886  16.5755 0001989  82.8926 277.2428 13.11414249305654
ONEWEB-0019             
1 45449U 20020AB  26189.95724072 -.00000276  00000+0 -81389-3 0  9990
2 45449  87.8881  16.7201 0001840  95.9205 264.2133 13.11412066305394
ONEWEB-0094             
1 45450U 20020AC  26190.75599325  .00000047  00000+0  87791-4 0  9991
2 45450  87.9145   1.3607 0001690  98.0325 262.0998 13.17648031309286
ONEWEB-0087             
1 45451U 20020AD  26190.76769727 -.00000343  00000+0 -10046-2 0  9996
2 45451  87.8896  16.5496 0001549  91.1331 268.9974 13.11415685305542
ONEWEB-0082             
1 45452U 20020AE  26190.76431000 -.00000304  00000+0 -89266-3 0  9995
2 45452  87.8891  16.5651 0001404  82.1156 278.0131 13.11415177305639
ONEWEB-0050             
1 45453U 20020AF  26190.09745829  .00001357  00000+0  13706-3 0  9992
2 45453  88.9282 230.2349 0001032 200.9146 159.2041 14.90460637343643
ONEWEB-0034             
1 45454U 20020AG  26189.96263867  .00000440  00000+0  12043-2 0  9998
2 45454  87.8886  16.7339 0001764  89.4648 270.6682 13.11417720305449
ONEWEB-0060             
1 45455U 20020AH  26190.75682411  .00000013  00000+0  95858-6 0  9993
2 45455  87.8879  16.5723 0000985 112.0987 248.0246 13.11414771305505
ONEWEB-0086             
1 45456U 20020AJ  26189.97253322  .00000481  00000+0  13211-2 0  9999
2 45456  87.8878  16.7253 0001476 113.7224 246.4059 13.11416353305460
ONEWEB-0088             
1 45457U 20020AK  26189.95061313 -.00000010  00000+0 -62962-4 0  9994
2 45457  87.8896  16.7040 0001844  76.3464 283.7869 13.11418591305395
ONEWEB-0102             
1 47258U 20100A   26190.70016422 -.00000275  00000+0 -80087-3 0  9990
2 47258  87.8953 346.1976 0001956 104.2156 255.9190 13.12443866267682
ONEWEB-0109             
1 47259U 20100B   26190.70863719  .00000049  00000+0  99490-4 0  9996
2 47259  87.8962 346.1812 0001997  97.7442 262.3914 13.12444978267514
ONEWEB-0110             
1 47260U 20100C   26190.65951983  .00000423  00000+0  11415-2 0  9998
2 47260  87.8976 346.1752 0001720 104.8819 255.2500 13.12442674267676
ONEWEB-0111             
1 47261U 20100D   26190.68999860 -.00000353  00000+0 -10165-2 0  9993
2 47261  87.8963 346.1877 0001725  95.4095 264.7230 13.12443215267517
ONEWEB-0114             
1 47262U 20100E   26189.88189024  .00000383  00000+0  10286-2 0  9992
2 47262  87.8965 346.3462 0002047  95.9180 264.2182 13.12442572267369
ONEWEB-0117             
1 47263U 20100F   26190.71202416  .00000138  00000+0  34872-3 0  9994
2 47263  87.8962 346.1714 0001851  96.5906 263.5433 13.12443566267488
ONEWEB-0118             
1 47264U 20100G   26190.66967049  .00000196  00000+0  50939-3 0  9995
2 47264  87.8967 346.1820 0002051  89.4104 270.7260 13.12441550267676
ONEWEB-0119             
1 47265U 20100H   26190.69508081 -.00000404  00000+0 -11579-2 0  9996
2 47265  87.8952 346.1922 0001864  95.1502 264.9840 13.12442571267652
ONEWEB-0120             
1 47266U 20100J   26190.71894039  .00000388  00000+0  10424-2 0  9998
2 47266  87.8956 346.1888 0002025  96.3181 263.8179 13.12443624267680
ONEWEB-0121             
1 47267U 20100K   26189.94456784  .00000027  00000+0  40190-4 0  9998
2 47267  87.8963 346.3308 0001527  95.3688 264.7615 13.12443326267498
ONEWEB-0122             
1 47268U 20100L   26189.93863140 -.00000146  00000+0 -44152-3 0  9991
2 47268  87.8964 346.3369 0001926 100.1600 259.9746 13.12445473267406
ONEWEB-0123             
1 47269U 20100M   26189.93440013 -.00000332  00000+0 -95936-3 0  9995
2 47269  87.8953 346.3425 0001896  92.4971 267.6375 13.12443024267547
ONEWEB-0124             
1 47270U 20100N   26190.68660615 -.00000346  00000+0 -99826-3 0  9990
2 47270  87.8950 346.1959 0001725  93.9916 266.1409 13.12442316267525
ONEWEB-0125             
1 47271U 20100P   26190.66458897  .00000322  00000+0  85859-3 0  9999
2 47271  87.8962 346.1859 0001643  86.7941 273.3376 13.12442056267585
ONEWEB-0126             
1 47272U 20100Q   26189.92268865 -.00000393  00000+0 -11265-2 0  9990
2 47272  87.8954 346.3481 0001947  94.5078 265.6274 13.12442139267555
ONEWEB-0127             
1 47273U 20100R   26189.81243174  .00000443  00000+0  11959-2 0  9999
2 47273  87.8953 346.3671 0001981  96.5027 263.6328 13.12442873267564
ONEWEB-0128             
1 47274U 20100S   26190.67305850  .00000005  00000+0 -21342-4 0  9990
2 47274  87.8955 346.2097 0001718 105.7917 254.3401 13.12441658267690
ONEWEB-0129             
1 47275U 20100T   26190.72896963  .00000495  00000+0  13412-2 0  9996
2 47275  87.8959 346.1747 0002898  97.6796 262.4662 13.12442724267638
